start=new Date('2022-11-11T00:00:00.000Z').valueOf();
sats=[{"RA_OF_ASC_NODE":"157.8421","TIME_SYSTEM":"UTC","ELEMENT_SET_NO":"999","PERIAPSIS":"538.401","DECAY_DATE":null,"TLE_LINE2":"2 52991  53.2178 157.8421 0001990  44.1276 315.9875 15.08829550 19309","EPHEMERIS_TYPE":"0","SEMIMAJOR_AXIS":"6917.912","CENTER_NAME":"EARTH","INCLINATION":"53.2178","NORAD_CAT_ID":"52991","TLE_LINE1":"1 52991U 22076F   22314.83083726 -.00001495  00000-0 -75854-4 0  9996","MEAN_ANOMALY":"315.9875","PERIOD":"95.438","REF_FRAME":"TEME","MEAN_ELEMENT_THEORY":"SGP4","EPOCH":"2022-11-10T19:56:24.339264","REV_AT_EPOCH":"1930","CLASSIFICATION_TYPE":"U","FILE":"3650843","BSTAR":"-0.00007585400000","OBJECT_TYPE":"PAYLOAD","RCS_SIZE":"LARGE","SITE":"AFETR","MEAN_MOTION_DDOT":"0.0000000000000","GP_ID":"217372836","MEAN_MOTION_DOT":"-0.00001495","OBJECT_ID":"2022-076F","LAUNCH_DATE":"2022-07-07","OBJECT_NAME":"STARLINK-4285","MEAN_MOTION":"15.08829550","APOAPSIS":"541.154","ECCENTRICITY":"0.00019900","COUNTRY_CODE":"US","ARG_OF_PERICENTER":"44.1276"},{"GP_ID":"217373172","MEAN_MOTION_DDOT":"0.0000000000000","OBJECT_ID":"2022-076G","MEAN_MOTION_DOT":"-0.00002864","LAUNCH_DATE":"2022-07-07","OBJECT_NAME":"STARLINK-4269","RCS_SIZE":"LARGE","SITE":"AFETR","FILE":"3650843","BSTAR":"-0.00016202000000","OBJECT_TYPE":"PAYLOAD","REV_AT_EPOCH":"1930","CLASSIFICATION_TYPE":"U","COUNTRY_CODE":"US","ARG_OF_PERICENTER":"39.9295","APOAPSIS":"541.403","ECCENTRICITY":"0.00022880","MEAN_MOTION":"15.08815610","DECAY_DATE":null,"TIME_SYSTEM":"UTC","ELEMENT_SET_NO":"999","PERIAPSIS":"538.237","RA_OF_ASC_NODE":"157.8636","MEAN_ELEMENT_THEORY":"SGP4","PERIOD":"95.439","REF_FRAME":"TEME","EPOCH":"2022-11-10T19:51:06.526368","MEAN_ANOMALY":"320.1865","EPHEMERIS_TYPE":"0","SEMIMAJOR_AXIS":"6917.955","INCLINATION":"53.2170","CENTER_NAME":"EARTH","TLE_LINE1":"1 52992U 22076G   22314.82715887 -.00002864  00000-0 -16202-3 0  9998","NORAD_CAT_ID":"52992","TLE_LINE2":"2 52992  53.2170 157.8636 0002288  39.9295 320.1865 15.08815610 19303"},{"SITE":"AFETR","RCS_SIZE":"LARGE","OBJECT_NAME":"STARLINK-4264","LAUNCH_DATE":"2022-07-07","MEAN_MOTION_DOT":"-0.00000702","GP_ID":"217373002","MEAN_MOTION_DDOT":"0.0000000000000","OBJECT_ID":"2022-076H","CLASSIFICATION_TYPE":"U","REV_AT_EPOCH":"1944","OBJECT_TYPE":"PAYLOAD","BSTAR":"-0.00002600500000","FILE":"3650843","ECCENTRICITY":"0.00025630","APOAPSIS":"541.548","ARG_OF_PERICENTER":"38.5553","COUNTRY_CODE":"US","MEAN_MOTION":"15.08830268","PERIAPSIS":"538.002","ELEMENT_SET_NO":"999","TIME_SYSTEM":"UTC","DECAY_DATE":null,"RA_OF_ASC_NODE":"147.7100","MEAN_ANOMALY":"321.5622","REF_FRAME":"TEME","PERIOD":"95.438","EPOCH":"2022-11-10T20:40:07.346496","MEAN_ELEMENT_THEORY":"SGP4","TLE_LINE2":"2 52993  53.2162 147.7100 0002563  38.5553 321.5622 15.08830268 19444","TLE_LINE1":"1 52993U 22076H   22314.86119614 -.00000702  00000-0 -26005-4 0  9991","NORAD_CAT_ID":"52993","SEMIMAJOR_AXIS":"6917.910","INCLINATION":"53.2162","CENTER_NAME":"EARTH","EPHEMERIS_TYPE":"0"},{"PERIOD":"95.437","EPOCH":"2022-11-10T20:34:48.304128","MEAN_ELEMENT_THEORY":"SGP4","REF_FRAME":"TEME","MEAN_ANOMALY":"326.4262","CENTER_NAME":"EARTH","SEMIMAJOR_AXIS":"6917.852","INCLINATION":"53.2163","NORAD_CAT_ID":"52994","TLE_LINE1":"1 52994U 22076J   22314.85750352  .00000421  00000-0  44552-4 0  9994","EPHEMERIS_TYPE":"0","TLE_LINE2":"2 52994  53.2163 147.7225 0002588  33.6894 326.4262 15.08849397 19442","DECAY_DATE":null,"PERIAPSIS":"537.926","TIME_SYSTEM":"UTC","ELEMENT_SET_NO":"999","RA_OF_ASC_NODE":"147.7225","COUNTRY_CODE":"US","ARG_OF_PERICENTER":"33.6894","APOAPSIS":"541.507","ECCENTRICITY":"0.00025880","MEAN_MOTION":"15.08849397","LAUNCH_DATE":"2022-07-07","OBJECT_NAME":"STARLINK-4256","OBJECT_ID":"2022-076J","GP_ID":"217373330","MEAN_MOTION_DDOT":"0.0000000000000","MEAN_MOTION_DOT":"0.00000421","SITE":"AFETR","RCS_SIZE":"LARGE","BSTAR":"0.00004455200000","OBJECT_TYPE":"PAYLOAD","FILE":"3650843","REV_AT_EPOCH":"1944","CLASSIFICATION_TYPE":"U"},{"RA_OF_ASC_NODE":"147.7476","ELEMENT_SET_NO":"999","TIME_SYSTEM":"UTC","PERIAPSIS":"537.804","DECAY_DATE":null,"TLE_LINE2":"2 52995  53.2156 147.7476 0002833  26.1543 333.9592 15.08833955 19446","EPHEMERIS_TYPE":"0","NORAD_CAT_ID":"52995","TLE_LINE1":"1 52995U 22076K   22314.85014652  .00000388  00000-0  42486-4 0  9997","CENTER_NAME":"EARTH","SEMIMAJOR_AXIS":"6917.899","INCLINATION":"53.2156","MEAN_ANOMALY":"333.9592","PERIOD":"95.438","MEAN_ELEMENT_THEORY":"SGP4","REF_FRAME":"TEME","EPOCH":"2022-11-10T20:24:12.659328","CLASSIFICATION_TYPE":"U","REV_AT_EPOCH":"1944","FILE":"3650843","OBJECT_TYPE":"PAYLOAD","BSTAR":"0.00004248600000","RCS_SIZE":"LARGE","SITE":"AFETR","GP_ID":"217372420","MEAN_MOTION_DOT":"0.00000388","MEAN_MOTION_DDOT":"0.0000000000000","OBJECT_ID":"2022-076K","OBJECT_NAME":"STARLINK-4296","LAUNCH_DATE":"2022-07-07","MEAN_MOTION":"15.08833955","ECCENTRICITY":"0.00028330","APOAPSIS":"541.724","ARG_OF_PERICENTER":"26.1543","COUNTRY_CODE":"US"},{"REF_FRAME":"TEME","PERIOD":"95.438","MEAN_ELEMENT_THEORY":"SGP4","EPOCH":"2022-11-10T20:29:29.416416","MEAN_ANOMALY":"324.9616","TLE_LINE1":"1 52996U 22076L   22314.85381269  .00000970  00000-0  79078-4 0  9993","NORAD_CAT_ID":"52996","INCLINATION":"53.2169","SEMIMAJOR_AXIS":"6917.911","CENTER_NAME":"EARTH","EPHEMERIS_TYPE":"0","TLE_LINE2":"2 52996  53.2169 147.7375 0002214  35.1522 324.9616 15.08829924 19447","DECAY_DATE":null,"PERIAPSIS":"538.245","ELEMENT_SET_NO":"999","TIME_SYSTEM":"UTC","RA_OF_ASC_NODE":"147.7375","ARG_OF_PERICENTER":"35.1522","COUNTRY_CODE":"US","ECCENTRICITY":"0.00022140","APOAPSIS":"541.308","MEAN_MOTION":"15.08829924","OBJECT_NAME":"STARLINK-4295","LAUNCH_DATE":"2022-07-07","GP_ID":"217372755","MEAN_MOTION_DDOT":"0.0000000000000","MEAN_MOTION_DOT":"0.00000970","OBJECT_ID":"2022-076L","SITE":"AFETR","RCS_SIZE":"LARGE","OBJECT_TYPE":"PAYLOAD","BSTAR":"0.00007907800000","FILE":"3650843","CLASSIFICATION_TYPE":"U","REV_AT_EPOCH":"1944"},{"DECAY_DATE":null,"ELEMENT_SET_NO":"999","TIME_SYSTEM":"UTC","PERIAPSIS":"538.310","RA_OF_ASC_NODE":"147.7906","PERIOD":"95.438","EPOCH":"2022-11-10T20:08:18.818880","REF_FRAME":"TEME","MEAN_ELEMENT_THEORY":"SGP4","MEAN_ANOMALY":"322.4008","EPHEMERIS_TYPE":"0","NORAD_CAT_ID":"52997","TLE_LINE1":"1 52997U 22076M   22314.83910670 -.00001765  00000-0 -92851-4 0  9995","INCLINATION":"53.2152","SEMIMAJOR_AXIS":"6917.915","CENTER_NAME":"EARTH","TLE_LINE2":"2 52997  53.2152 147.7906 0002125  37.7132 322.4008 15.08828702 19447","MEAN_MOTION_DDOT":"0.0000000000000","GP_ID":"217372585","OBJECT_ID":"2022-076M","MEAN_MOTION_DOT":"-0.00001765","OBJECT_NAME":"STARLINK-4301","LAUNCH_DATE":"2022-07-07","RCS_SIZE":"LARGE","SITE":"AFETR","FILE":"3650843","OBJECT_TYPE":"PAYLOAD","BSTAR":"-0.00009285100000","CLASSIFICATION_TYPE":"U","REV_AT_EPOCH":"1944","ARG_OF_PERICENTER":"37.7132","COUNTRY_CODE":"US","ECCENTRICITY":"0.00021250","APOAPSIS":"541.250","MEAN_MOTION":"15.08828702"},{"MEAN_ANOMALY":"305.4802","MEAN_ELEMENT_THEORY":"SGP4","PERIOD":"95.439","REF_FRAME":"TEME","EPOCH":"2022-11-10T20:20:18.264768","TLE_LINE2":"2 52998  53.2161 147.7697 0001572  54.6337 305.4802 15.08825000 19446","SEMIMAJOR_AXIS":"6917.926","INCLINATION":"53.2161","CENTER_NAME":"EARTH","NORAD_CAT_ID":"52998","TLE_LINE1":"1 52998U 22076N   22314.84743362 -.00000674  00000-0 -24268-4 0  9994","EPHEMERIS_TYPE":"0","PERIAPSIS":"538.704","TIME_SYSTEM":"UTC","ELEMENT_SET_NO":"999","DECAY_DATE":null,"RA_OF_ASC_NODE":"147.7697","APOAPSIS":"540.879","ECCENTRICITY":"0.00015720","COUNTRY_CODE":"US","ARG_OF_PERICENTER":"54.6337","MEAN_MOTION":"15.08825000","SITE":"AFETR","RCS_SIZE":"LARGE","LAUNCH_DATE":"2022-07-07","OBJECT_NAME":"STARLINK-4254","GP_ID":"217373592","OBJECT_ID":"2022-076N","MEAN_MOTION_DDOT":"0.0000000000000","MEAN_MOTION_DOT":"-0.00000674","REV_AT_EPOCH":"1944","CLASSIFICATION_TYPE":"U","BSTAR":"-0.00002426800000","OBJECT_TYPE":"PAYLOAD","FILE":"3650843"},{"RCS_SIZE":"LARGE","SITE":"AFETR","GP_ID":"217372837","OBJECT_ID":"2022-076P","MEAN_MOTION_DDOT":"0.0000000000000","MEAN_MOTION_DOT":"0.00002060","OBJECT_NAME":"STARLINK-4217","LAUNCH_DATE":"2022-07-07","CLASSIFICATION_TYPE":"U","REV_AT_EPOCH":"1944","FILE":"3650843","OBJECT_TYPE":"PAYLOAD","BSTAR":"0.00014756000000","ECCENTRICITY":"0.00015790","APOAPSIS":"540.905","ARG_OF_PERICENTER":"70.1382","COUNTRY_CODE":"US","MEAN_MOTION":"15.08818138","ELEMENT_SET_NO":"999","TIME_SYSTEM":"UTC","PERIAPSIS":"538.720","DECAY_DATE":null,"RA_OF_ASC_NODE":"147.8165","MEAN_ANOMALY":"289.9780","PERIOD":"95.439","MEAN_ELEMENT_THEORY":"SGP4","REF_FRAME":"TEME","EPOCH":"2022-11-10T19:57:44.318880","TLE_LINE2":"2 52999  53.2164 147.8165 0001579  70.1382 289.9780 15.08818138 19446","EPHEMERIS_TYPE":"0","NORAD_CAT_ID":"52999","TLE_LINE1":"1 52999U 22076P   22314.83176295  .00002060  00000-0  14756-3 0  9998","SEMIMAJOR_AXIS":"6917.947","INCLINATION":"53.2164","CENTER_NAME":"EARTH"},{"TLE_LINE2":"2 53000  53.2173 147.7709 0002208  35.5828 324.5311 15.08844891 19444","SEMIMAJOR_AXIS":"6917.865","CENTER_NAME":"EARTH","INCLINATION":"53.2173","NORAD_CAT_ID":"53000","TLE_LINE1":"1 53000U 22076Q   22314.84646881 -.00001092  00000-0 -50465-4 0  9990","EPHEMERIS_TYPE":"0","MEAN_ANOMALY":"324.5311","EPOCH":"2022-11-10T20:18:54.905184","PERIOD":"95.437","REF_FRAME":"TEME","MEAN_ELEMENT_THEORY":"SGP4","RA_OF_ASC_NODE":"147.7709","PERIAPSIS":"538.203","TIME_SYSTEM":"UTC","ELEMENT_SET_NO":"999","DECAY_DATE":null,"MEAN_MOTION":"15.08844891","APOAPSIS":"541.258","ECCENTRICITY":"0.00022080","COUNTRY_CODE":"US","ARG_OF_PERICENTER":"35.5828","REV_AT_EPOCH":"1944","CLASSIFICATION_TYPE":"U","BSTAR":"-0.00005046500000","OBJECT_TYPE":"PAYLOAD","FILE":"3650843","SITE":"AFETR","RCS_SIZE":"LARGE","LAUNCH_DATE":"2022-07-07","OBJECT_NAME":"STARLINK-4194","GP_ID":"217373173","MEAN_MOTION_DDOT":"0.0000000000000","MEAN_MOTION_DOT":"-0.00001092","OBJECT_ID":"2022-076Q"}];
